{
    "links": {
        "self": "http://www.neowsapp.com/rest/v1/neo/3743604?api_key=iIulBulltgU6a56xZRHN4H3l9WmuAYTsLGpBGhQ2"
    },
    "id": "3743604",
    "neo_reference_id": "3743604",
    "name": "(2016 CA194)",
    "designation": "2016 CA194",
    "nasa_jpl_url": "http://ssd.jpl.nasa.gov/sbdb.cgi?sstr=3743604",
    "absolute_magnitude_h": 27.2,
    "estimated_diameter": {
        "kilometers": {
            "estimated_diameter_min": 0.0096506147,
            "estimated_diameter_max": 0.0215794305
        },
        "meters": {
            "estimated_diameter_min": 9.6506146958,
            "estimated_diameter_max": 21.5794304844
        },
        "miles": {
            "estimated_diameter_min": 0.0059966121,
            "estimated_diameter_max": 0.0134088323
        },
        "feet": {
            "estimated_diameter_min": 31.6621227185,
            "estimated_diameter_max": 70.7986587106
        }
    },
    "is_potentially_hazardous_asteroid": false,
    "close_approach_data": [
        {
            "close_approach_date": "2016-02-12",
            "close_approach_date_full": "2016-Feb-12 06:53",
            "epoch_date_close_approach": 1455259980000,
            "relative_velocity": {
                "kilometers_per_second": "5.8535774912",
                "kilometers_per_hour": "21072.8789683676",
                "miles_per_hour": "13093.8674900949"
            },
            "miss_distance": {
                "astronomical": "0.0306437636",
                "lunar": "11.9204240404",
                "kilometers": "4584241.763343532",
                "miles": "2848515.7443114616"
            },
            "orbiting_body": "Earth"
        },
        {
            "close_approach_date": "2061-12-19",
            "close_approach_date_full": "2061-Dec-19 09:38",
            "epoch_date_close_approach": 2902210680000,
            "relative_velocity": {
                "kilometers_per_second": "16.9119958957",
                "kilometers_per_hour": "60883.1852245423",
                "miles_per_hour": "37830.4436191052"
            },
            "miss_distance": {
                "astronomical": "0.394907496",
                "lunar": "153.619015944",
                "kilometers": "59077320.24863352",
                "miles": "36708944.586121776"
            },
            "orbiting_body": "Earth"
        }
    ],
    "orbital_data": {
        "orbit_id": "4",
        "orbit_determination_date": "2017-04-06 08:28:22",
        "first_observation_date": "2016-02-10",
        "last_observation_date": "2016-02-16",
        "data_arc_in_days": 6,
        "observations_used": 22,
        "orbit_uncertainty": "8",
        "minimum_orbit_intersection": ".0300101",
        "jupiter_tisserand_invariant": "4.033",
        "epoch_osculation": "2457429.5",
        "eccentricity": ".4180698137315978",
        "semi_major_axis": "1.742662166543618",
        "inclination": "5.064936000219689",
        "ascending_node_longitude": "145.4725133432993",
        "orbital_period": "840.2687861759748",
        "perihelion_distance": "1.014107719179625",
        "perihelion_argument": "349.1019524482288",
        "aphelion_distance": "2.471216613907611",
        "perihelion_time": "2457423.907503515406",
        "mean_anomaly": "2.396017521507935",
        "mean_motion": ".4284343366345234",
        "equinox": "J2000",
        "orbit_class": {
            "orbit_class_type": "APO",
            "orbit_class_description": "Near-Earth asteroid orbits which cross the Earth’s orbit similar to that of 1862 Apollo",
            "orbit_class_range": "a (semi-major axis) > 1.0 AU; q (perihelion) < 1.017 AU"
        }
    },
    "is_sentry_object": false
}